SDA_1681                
1 65991U 25230T   26162.64308012  .00000131  00000+0  10476-3 0  9998
2 65991  81.3002 216.6911 0003722 197.7809 162.3218 13.85303129 33056
SDA_1682                
1 65992U 25230U   26162.61272610  .00000108  00000+0  95439-4 0  9997
2 65992  81.3020 217.6543 0001107 102.4475 257.6802 13.78092506 32991
SDA_1683                
1 65993U 25230V   26162.64227768  .00000048  00000+0  35707-4 0  9990
2 65993  81.3009 217.4987 0001127  98.5821 261.5460 13.78976197 33005
SDA_1684                
1 65994U 25230W   26162.63860805  .00000073  00000+0  59209-4 0  9996
2 65994  81.3005 217.4712 0001341 120.4319 239.6968 13.79432571 33006
HULIANWANG DIGUI-87     
1 65995U 25231A   26162.45151751 -.00000067  00000+0  12382-3 0  9995
2 65995  49.9978 196.4144 0000796 222.9660 137.1150 13.29328719 32121
HULIANWANG DIGUI-88     
1 65996U 25231B   26162.30942359 -.00000077  00000+0  10045-3 0  9997
2 65996  49.9964 196.9734 0000893 215.7343 144.3470 13.29329560 32101
HULIANWANG DIGUI-89     
1 65997U 25231C   26162.36796847 -.00000071  00000+0  11334-3 0  9999
2 65997  49.9942 196.5753 0000895 219.6206 140.4600 13.29328566 32116
HULIANWANG DIGUI-90     
1 65998U 25231D   26162.35963889 -.00000072  00000+0  11298-3 0  9991
2 65998  49.9972 196.5870 0000896 216.8803 143.2007 13.29327102 32110
HULIANWANG DIGUI-91     
1 65999U 25231E   26162.35129514 -.00000076  00000+0  10254-3 0  9996
2 65999  49.9991 196.5813 0000883 217.4212 142.6598 13.29327718 32117
HULIANWANG DIGUI-92     
1 66000U 25231F   26162.41810340 -.00000078  00000+0  99027-4 0  9999
2 66000  50.0031 196.3432 0000890 218.5169 141.5639 13.29329661 32129
HULIANWANG DIGUI-93     
1 66001U 25231G   26162.40134507 -.00000082  00000+0  90343-4 0  9990
2 66001  49.9998 196.1992 0000889 216.6101 143.4711 13.29328609 32124
HULIANWANG DIGUI-94     
1 66002U 25231H   26162.40979414 -.00000079  00000+0  96353-4 0  9998
2 66002  50.0038 196.3160 0000913 217.6153 142.4656 13.29326617 32122
HULIANWANG DIGUI-95     
1 66003U 25231J   26162.39314785 -.00000077  00000+0  10082-3 0  9993
2 66003  50.0010 196.1790 0000830 217.6303 142.4511 13.29332911 32129
STARLINK-34849          
1 66005U 25232A   26162.92917142  .00018604  00000+0  56032-3 0  9990
2 66005  53.1593  25.5017 0001342 141.7404 218.3694 15.34403150 37869
STARLINK-35336          
1 66006U 25232B   26162.91668981  .00006104  00000+0  19681-3 0  9995
2 66006  53.1607  25.7974 0001231  86.4072  82.5375 15.33541434  5873
STARLINK-35196          
1 66007U 25232C   26162.91110964  .00026754  00000+0  91216-3 0  9996
2 66007  53.1592  26.0956 0000922  98.8124 261.2981 15.30200290 37853
STARLINK-35236          
1 66008U 25232D   26162.88928876  .00025215  00000+0  75470-3 0  9997
2 66008  53.1617  25.9604 0001424  79.5590 280.5573 15.34408221 37849
STARLINK-35276          
1 66009U 25232E   26162.92376131  .00019833  00000+0  68037-3 0  9994
2 66009  53.1601  26.1728 0001145  85.2720 274.8411 15.30181004 37842
STARLINK-35297          
1 66010U 25232F   26162.93758895  .00030306  00000+0  90461-3 0  9992
2 66010  53.1598  25.5519 0001138 103.2163 256.8967 15.34395280 37869
STARLINK-35256          
1 66011U 25232G   26162.90475442  .00020907  00000+0  71583-3 0  9994
2 66011  53.1587  26.0541 0000907  97.9346 262.1758 15.30207940 37863
STARLINK-35293          
1 66012U 25232H   26162.89841920  .00026067  00000+0  88877-3 0  9998
2 66012  53.1594  26.0140 0002283 170.9009 189.2034 15.30213087 37869
STARLINK-35307          
1 66013U 25232J   26162.90190840  .00024093  00000+0  72184-3 0  9990
2 66013  53.1604  26.0395 0001074 136.2243 223.8845 15.34403484 37867
STARLINK-35395          
1 66014U 25232K   26162.91741849  .00023850  00000+0  81488-3 0  9990
2 66014  53.1594  26.1323 0001057  81.3751 278.7369 15.30196710 37860
STARLINK-34622          
1 66015U 25232L   26162.89139007  .00022509  00000+0  67545-3 0  9993
2 66015  53.1606  25.9734 0000933  67.5829 292.5272 15.34394383 37858
STARLINK-35243          
1 66016U 25232M   26162.85570823  .00033132  00000+0  98688-3 0  9991
2 66016  53.1597  26.4566 0001493 138.8937 221.2179 15.34416279 37855
STARLINK-35398          
1 66017U 25232N   26162.81783710  .00027650  00000+0  82686-3 0  9998
2 66017  53.1610  26.2252 0001157  77.8751 282.2382 15.34384594 37852
STARLINK-35376          
1 66018U 25232P   26162.91243189  .00015838  00000+0  47899-3 0  9993
2 66018  53.1600  26.1006 0001242  74.3549 285.7591 15.34394007 37861
STARLINK-35382          
1 66019U 25232Q   26162.91663520  .00012986  00000+0  39484-3 0  9991
2 66019  53.1598  26.1256 0000982  95.6153 264.4962 15.34397980 37861
STARLINK-35430          
1 66020U 25232R   26162.92058246  .00002793  00000+0  10640-3 0  9995
2 66020  53.1603  26.1546 0001054 123.5015 236.6086 15.30196149 37847
STARLINK-35432          
1 66021U 25232S   26162.92691578  .00016905  00000+0  58141-3 0  9995
2 66021  53.1576  26.1992 0001685 159.8735 200.2332 15.30208877 37868
