OBJECT_NAME,OBJECT_ID,EPOCH,MEAN_MOTION,ECCENTRICITY,INCLINATION,RA_OF_ASC_NODE,ARG_OF_PERICENTER,MEAN_ANOMALY,EPHEMERIS_TYPE,CLASSIFICATION_TYPE,NORAD_CAT_ID,ELEMENT_SET_NO,REV_AT_EPOCH,BSTAR,MEAN_MOTION_DOT,MEAN_MOTION_DDOT
SDA_1681,2025-230T,2026-06-11T15:26:02.122368,13.85303129,.00037229,81.3002,216.6911,197.7809,162.3218,0,U,65991,999,3305,.10476229E-3,.131E-5,0
SDA_1682,2025-230U,2026-06-11T14:42:19.535040,13.78092506,.00011077,81.3020,217.6543,102.4475,257.6802,0,U,65992,999,3299,.95439136E-4,.108E-5,0
SDA_1683,2025-230V,2026-06-11T15:24:52.791552,13.78976197,.00011271,81.3009,217.4987,98.5821,261.5460,0,U,65993,999,3300,.35707036E-4,.48E-6,0
SDA_1684,2025-230W,2026-06-11T15:19:35.735520,13.79432571,.00013412,81.3005,217.4712,120.4319,239.6968,0,U,65994,999,3300,.59208834E-4,.73E-6,0
HULIANWANG DIGUI-87,2025-231A,2026-06-11T10:50:11.112864,13.29328719,.0000796,49.9978,196.4144,222.9660,137.1150,0,U,65995,999,3212,.12382E-3,-.67E-6,0
HULIANWANG DIGUI-88,2025-231B,2026-06-11T07:25:34.198176,13.29329560,.0000893,49.9964,196.9734,215.7343,144.3470,0,U,65996,999,3210,.10045E-3,-.77E-6,0
HULIANWANG DIGUI-89,2025-231C,2026-06-11T08:49:52.475808,13.29328566,.0000895,49.9942,196.5753,219.6206,140.4600,0,U,65997,999,3211,.11334E-3,-.71E-6,0
HULIANWANG DIGUI-90,2025-231D,2026-06-11T08:37:52.800096,13.29327102,.0000896,49.9972,196.5870,216.8803,143.2007,0,U,65998,999,3211,.11298E-3,-.72E-6,0
HULIANWANG DIGUI-91,2025-231E,2026-06-11T08:25:51.900096,13.29327718,.0000883,49.9991,196.5813,217.4212,142.6598,0,U,65999,999,3211,.10254E-3,-.76E-6,0
HULIANWANG DIGUI-92,2025-231F,2026-06-11T10:02:04.133760,13.29329661,.000089,50.0031,196.3432,218.5169,141.5639,0,U,66000,999,3212,.99027E-4,-.78E-6,0
HULIANWANG DIGUI-93,2025-231G,2026-06-11T09:37:56.214048,13.29328609,.0000889,49.9998,196.1992,216.6101,143.4711,0,U,66001,999,3212,.90343E-4,-.82E-6,0
HULIANWANG DIGUI-94,2025-231H,2026-06-11T09:50:06.213696,13.29326617,.0000913,50.0038,196.3160,217.6153,142.4656,0,U,66002,999,3212,.96353E-4,-.79E-6,0
HULIANWANG DIGUI-95,2025-231J,2026-06-11T09:26:07.974240,13.29332911,.000083,50.0010,196.1790,217.6303,142.4511,0,U,66003,999,3212,.10082E-3,-.77E-6,0
STARLINK-34849,2025-232A,2026-06-11T22:18:00.410688,15.34403150,.00013425,53.1593,25.5017,141.7404,218.3694,0,U,66005,999,3786,.56032288E-3,.18604E-3,0
STARLINK-35336,2025-232B,2026-06-11T22:00:01.999584,15.33541434,.00012311,53.1607,25.7974,86.4072,82.5375,0,U,66006,999,587,.19681391E-3,.6104E-4,0
STARLINK-35196,2025-232C,2026-06-11T21:51:59.872896,15.30200290,.00009227,53.1592,26.0956,98.8124,261.2981,0,U,66007,999,3785,.91216353E-3,.26754E-3,0
STARLINK-35236,2025-232D,2026-06-11T21:20:34.548864,15.34408221,.00014242,53.1617,25.9604,79.5590,280.5573,0,U,66008,999,3784,.75469774E-3,.25215E-3,0
STARLINK-35276,2025-232E,2026-06-11T22:10:12.977184,15.30181004,.00011458,53.1601,26.1728,85.2720,274.8411,0,U,66009,999,3784,.68036613E-3,.19833E-3,0
STARLINK-35297,2025-232F,2026-06-11T22:30:07.685280,15.34395280,.00011381,53.1598,25.5519,103.2163,256.8967,0,U,66010,999,3786,.90461302E-3,.30306E-3,0
STARLINK-35256,2025-232G,2026-06-11T21:42:50.781888,15.30207940,.00009078,53.1587,26.0541,97.9346,262.1758,0,U,66011,999,3786,.71582938E-3,.20907E-3,0
STARLINK-35293,2025-232H,2026-06-11T21:33:43.418880,15.30213087,.00022833,53.1594,26.0140,170.9009,189.2034,0,U,66012,999,3786,.88876636E-3,.26067E-3,0
STARLINK-35307,2025-232J,2026-06-11T21:38:44.885760,15.34403484,.0001074,53.1604,26.0395,136.2243,223.8845,0,U,66013,999,3786,.72183689E-3,.24093E-3,0
STARLINK-35395,2025-232K,2026-06-11T22:01:04.957536,15.30196710,.00010577,53.1594,26.1323,81.3751,278.7369,0,U,66014,999,3786,.81488145E-3,.2385E-3,0
STARLINK-34622,2025-232L,2026-06-11T21:23:36.102048,15.34394383,.00009332,53.1606,25.9734,67.5829,292.5272,0,U,66015,999,3785,.67544663E-3,.22509E-3,0
STARLINK-35243,2025-232M,2026-06-11T20:32:13.191072,15.34416279,.00014938,53.1597,26.4566,138.8937,221.2179,0,U,66016,999,3785,.98688307E-3,.33132E-3,0
STARLINK-35398,2025-232N,2026-06-11T19:37:41.125440,15.34384594,.00011571,53.1610,26.2252,77.8751,282.2382,0,U,66017,999,3785,.82685638E-3,.2765E-3,0
STARLINK-35376,2025-232P,2026-06-11T21:53:54.115296,15.34394007,.00012424,53.1600,26.1006,74.3549,285.7591,0,U,66018,999,3786,.47898666E-3,.15838E-3,0
STARLINK-35382,2025-232Q,2026-06-11T21:59:57.281280,15.34397980,.00009829,53.1598,26.1256,95.6153,264.4962,0,U,66019,999,3786,.39484218E-3,.12986E-3,0
STARLINK-35430,2025-232R,2026-06-11T22:05:38.324544,15.30196149,.00010548,53.1603,26.1546,123.5015,236.6086,0,U,66020,999,3784,.10640171E-3,.2793E-4,0
STARLINK-35432,2025-232S,2026-06-11T22:14:45.523392,15.30208877,.00016856,53.1576,26.1992,159.8735,200.2332,0,U,66021,999,3786,.58141317E-3,.16905E-3,0
